{"type":"NominatimDumpFile","content":{"version":"0.1.0","generator":"copilot-ai-norway-pt-transform","database_version":"0.3.6-1","data_timestamp":"2025-05-26T12:00:00.000+00:00","features":{"sorted_by_country":true,"has_addresslines":false}}}
{"type":"CountryInfo","content":[{"country_code":"no","name":{"name:bs":"Norveška","name:se":"Norga","name:sk":"Nórsko","name:sh":"Norveška","name:ka":"ნორვეგია","name:kg":"Norge","name:so":"Norway","name:sl":"Norveška","name:sr":"Норвешка","name:kk":"Норвегия","name:ss":"INoweyi","name:ca":"Noruega","name:sq":"Norvegjia","name:kn":"ನಾರ್ವೇ","name:sv":"Norge","name:ko":"노르웨이","name:sw":"Norwei","name:kl":"Norge","name:ce":"Норвеги","name:su":"Norwégia","name:kv":"Норвегия","name:co":"Nurvegia","name:kw":"Norgagh","name:ku":"Norwêc","name:cs":"Norsko","name:ta":"நோர்வே","name:ky":"Норвегия","name:ar":"النرويج","name:ja":"ノルウェー","name:ay":"Nurweka","name:rm":"Norvegia","name:zu":"INoki","name:rn":"Noruega","name:az":"Norveç","name:ba":"Норвегия","name:ro":"Norvegia","name:be":"Нарвегія","name:ru":"Норвегия","name:bi":"Norway","name:bg":"Норвегия","name:rw":"Noruveje","name:bm":"Norwij","name:bn":"নরওয়ে","name:jv":"Norwégia","name:br":"Norvegia","name:sc":"Norvegia","name:bo":"ནོར་ཝེ།","name:sa":"नार्वे","name:dv":"ނޯވޭ","name:ug":"نورۋېگىيە","name:dz":"ནོ་ཝེ་","name:uk":"Норвегія","name:mi":"Nōwei","name:mg":"Norvezy","name:ml":"നോർവെ","name:ee":"Norway","name:ur":"ناروے","name:mk":"Норвешка","name:mn":"Норвеги","name:el":"Νορβηγία","name:mt":"Norveġja","name:mr":"नॉर्वे","name:uz":"Norvegiya","name:ms":"Norway","name:my":"နော်ဝေနိုင်ငံ","name:en":"Norway","name:eo":"Norvegio","name:et":"Norra","name:eu":"Norvegia","name:es":"Noruega","name:cv":"Норвеги","name:tg":"Норвегия","name:th":"ประเทศนอร์เวย์","name:te":"నార్వే","name:cu":"Норєгъ","name:tk":"Norwegiýa","name:tl":"Noruwega","name:la":"Norvegia","name:cy":"Norwy","name:lb":"Norwegen","name:ts":"Norge","name:tt":"Норвегия","name:da":"Norge","name:li":"Noorwege","name:tr":"Norveç","name:de":"Norwegen","name:ln":"Norvej","name:lt":"Norvegija","name:lv":"Norvēģija","name:fy":"Noarwegen","name:oc":"Norvègia","name:wo":"Noorwees","name:ga":"An Iorua","name:gd":"Nirribhidh","name:om":"Norway","name:or":"ନରୱେ","name:os":"Норвеги","name:gn":"Noruega","name:gl":"Noruega","name:gv":"Norlynn","name:gu":"નોર્વે","name:na":"Norwei","name:vi":"Na Uy","name:nb":"Norge","name:ne":"नर्वे","name:fa":"نروژ","name:vo":"Norgän","name:nn":"Noreg","name:nl":"Noorwegen","name:fi":"Norja","name:no":"Norge","name":"Norge","name:fr":"Norvège","name:fo":"Noregur","name:wa":"Norvedje","name:hy":"ՆորվեԳիա","name:ia":"Norvegia","name:yo":"Nọ́rwèy","name:id":"Norwegia","name:ie":"Norvegia","name:qu":"Nurwiga","name:za":"Nozveih","name:af":"Noorweë","name:io":"Norvegia","name:it":"Norvegia","name:am":"ኖርዌይ","name:iu":"ᓄᕐᒋ","name:is":"Noregur","name:an":"Noruega","name:zh":"挪威","name:pa":"ਨਾਰਵੇ","name:pl":"Norwegia","name:he":"נורבגיה","name:ps":"ناروې","name:pt":"Noruega","name:hi":"नॉर्वे","name:ht":"Nòvèj","name:hr":"Norveška","name:yi":"נארוועגיע","name:hu":"Norvégia"}}]}
{"type":"Place","content":[{"place_id":300001,"extra":{"id":"NSR:StopPlace:58404","county_gid":"whosonfirst:county:KVE:TopographicPlace:03"},"object_type":"W","object_id":800000001,"categories":["osm.railway.station","osm.train_station","osm.public_transport.station"],"rank_address":26,"importance":0.75,"parent_place_id":300000,"name":{"name":"Oslo Sentralstasjon","name:en":"Oslo Central Station","name:no":"Oslo S"},"address":{"city":"Oslo","street":"Jernbanetorget 1","neighbourhood":"Sentrum","county":"Oslo"},"postcode":"0154","country_code":"no","centroid":[10.752011,59.910004],"bbox":[10.748000,59.909000,10.755000,59.912000]}]}
{"type":"Place","content":[{"place_id":300002,"object_type":"N","object_id":800000002,"categories":["osm.highway.bus_stop","osm.public_transport.platform"],"rank_address":30,"importance":0.5,"parent_place_id":300000,"name":{"name":"Nationaltheatret (buss)","name:en":"Nationaltheatret (bus)"},"address":{"city":"Oslo","street":"Henrik Ibsens gate","neighbourhood":"Sentrum","county":"Oslo"},"postcode":"0255","country_code":"no","centroid":[10.7325,59.9140],"bbox":[10.7325,59.9140,10.7325,59.9140]}]}
{"type":"Place","content":[{"place_id":300003,"object_type":"W","object_id":800000003,"categories":["osm.amenity.bus_station","osm.public_transport.station"],"rank_address":28,"importance":0.6,"parent_place_id":300010,"name":{"name":"Bergen busstasjon","name:en":"Bergen Bus Station"},"address":{"city":"Bergen","street":"Strømgaten 8","neighbourhood":"Sentrum","county":"Vestland"},"postcode":"5008","country_code":"no","centroid":[5.3300,60.3895],"bbox":[5.3290,60.3890,5.3310,60.3900]}]}
{"type":"Place","content":[{"place_id":300004,"object_type":"N","object_id":800000004,"categories":["osm.railway.stop","osm.public_transport.stop_position"],"rank_address":30,"importance":0.55,"parent_place_id":300020,"name":{"name":"Trondheim S (spor 1)","name:en":"Trondheim S (track 1)"},"address":{"city":"Trondheim","street":"Fosenkaia","neighbourhood":"Brattøra","county":"Trøndelag"},"postcode":"7010","country_code":"no","centroid":[10.4030,63.4360],"bbox":[10.4030,63.4360,10.4030,63.4360]}]}
{"type":"Place","content":[{"place_id":300005,"object_type":"W","object_id":800000005,"categories":["osm.amenity.ferry_terminal","osm.public_transport.station"],"rank_address":28,"importance":0.5,"parent_place_id":300030,"name":{"name":"Tromsø Prostneset Havneterminal","name:en":"Tromsø Prostneset Harbour Terminal"},"address":{"city":"Tromsø","street":"Samuel Arnesens gate 5","neighbourhood":"Sentrum","county":"Troms og Finnmark"},"postcode":"9008","country_code":"no","centroid":[18.9510,69.6490],"bbox":[18.9490,69.6480,18.9530,69.6500]}]}
{"type":"Place","content":[{"place_id":300006,"object_type":"N","object_id":800000006,"categories":["osm.highway.bus_stop"],"rank_address":30,"importance":0.001,"parent_place_id":300040,"name":{"name":"Lillehammer Skysstasjon P1"},"address":{"city":"Lillehammer","street":"Jernbanegata","county":"Innlandet"},"postcode":"2609","country_code":"no","centroid":[10.4650,61.1155],"bbox":[10.4650,61.1155,10.4650,61.1155]}]}
{"type":"Place","content":[{"place_id":300007,"object_type":"N","object_id":800000007,"categories":["osm.highway.bus_stop"],"rank_address":30,"importance":0.001,"parent_place_id":300000,"name":{"name":"Carl Berners plass (buss)"},"address":{"city":"Oslo","street":"Trondheimsveien","neighbourhood":"Carl Berner","county":"Oslo"},"postcode":"0570","country_code":"no","centroid":[10.7770,59.9200],"bbox":[10.7770,59.9200,10.7770,59.9200]}]}
{"type":"Place","content":[{"place_id":300008,"object_type":"W","object_id":800000008,"categories":["osm.aeroway.terminal"],"rank_address":26,"importance":0.65,"parent_place_id":300050,"name":{"name":"Stavanger lufthavn, Sola","name:en":"Stavanger Airport, Sola"},"address":{"city":"Sola","county":"Rogaland"},"postcode":"4055","country_code":"no","centroid":[5.6378,58.8767],"bbox":[5.6200,58.8700,5.6500,58.8850]}]}
{"type":"Place","content":[{"place_id":300009,"object_type":"N","object_id":800000009,"categories":["osm.railway.stop","osm.public_transport.stop_position"],"rank_address":30,"importance":0.1,"parent_place_id":300060,"name":{"name":"Hokksund stasjon (plattform)"},"address":{"city":"Hokksund","county":"Viken"},"postcode":"3300","country_code":"no","centroid":[9.9080,59.7710],"bbox":[9.9080,59.7710,9.9080,59.7710]}]}
{"type":"Place","content":[{"place_id":300010,"object_type":"W","object_id":800000010,"categories":["osm.building.train_station"],"rank_address":30,"importance":0.3,"parent_place_id":300001,"name":{"name":"Oslo S Hovedbygning"},"address":{"city":"Oslo","street":"Jernbanetorget 1","neighbourhood":"Sentrum","county":"Oslo"},"postcode":"0154","country_code":"no","centroid":[10.7515,59.9105],"bbox":[10.7510,59.9102,10.7520,59.9108]}]}
{"type":"Place","content":[{"place_id":300011,"object_type":"W","object_id":800000011,"categories":["osm.building.public","osm.office.transport_company"],"rank_address":30,"importance":0.2,"parent_place_id":300003,"name":{"name":"Vy Kundesenter Bergen"},"address":{"city":"Bergen","street":"Strømgaten 8","neighbourhood":"Sentrum","county":"Vestland"},"postcode":"5008","country_code":"no","centroid":[5.3302,60.3896],"bbox":[5.3301,60.3895,5.3303,60.3897]}]}
{"type":"Place","content":[{"place_id":300012,"object_type":"N","object_id":800000012,"categories":["osm.highway.bus_stop"],"rank_address":30,"importance":0.0005,"parent_place_id":300070,"name":{"name":"Vik i Sogn kai"},"address":{"city":"Vikøyri","county":"Vestland"},"postcode":"6893","country_code":"no","centroid":[6.5830,61.0800],"bbox":[6.5830,61.0800,6.5830,61.0800]}]}
{"type":"Place","content":[{"place_id":300101,"object_type":"W","object_id":900000001,"categories":["osm.place.house_number"],"rank_address":30,"importance":0.0,"parent_place_id":300000,"housenumber":"2","address":{"city":"Oslo","street":"Biskop Gunnerus' gate","neighbourhood":"Sentrum","county":"Oslo"},"postcode":"0155","country_code":"no","centroid":[10.7505,59.9120],"bbox":[10.7504,59.9119,10.7506,59.9121]},{"place_id":300102,"object_type":"W","object_id":900000002,"categories":["osm.place.house_number"],"rank_address":30,"importance":0.0,"parent_place_id":300000,"housenumber":"4","address":{"city":"Oslo","street":"Biskop Gunnerus' gate","neighbourhood":"Sentrum","county":"Oslo"},"postcode":"0155","country_code":"no","centroid":[10.7508,59.9122],"bbox":[10.7507,59.9121,10.7509,59.9123]},{"place_id":300103,"object_type":"W","object_id":900000003,"categories":["osm.place.house_number"],"rank_address":30,"importance":0.0,"parent_place_id":300000,"housenumber":"6","address":{"city":"Oslo","street":"Biskop Gunnerus' gate","neighbourhood":"Sentrum","county":"Oslo"},"postcode":"0155","country_code":"no","centroid":[10.7511,59.9124],"bbox":[10.7510,59.9123,10.7512,59.9125]}]}

